start=new Date('2022-07-11T00:00:00.000Z').valueOf();
sats=[{"OBJECT_TYPE":"PAYLOAD","OBJECT_ID":"2020-057BG","LAUNCH_DATE":"2020-08-18","RCS_SIZE":"LARGE","REF_FRAME":"TEME","PERIOD":"95.592","SEMIMAJOR_AXIS":"6925.363","CENTER_NAME":"EARTH","ELEMENT_SET_NO":"999","INCLINATION":"53.0536","COUNTRY_CODE":"US","TIME_SYSTEM":"UTC","FILE":"3511318","REV_AT_EPOCH":"10593","TLE_LINE2":"2 46171  53.0536 183.1372 0001550  74.2492 285.8667 15.06395312105932","OBJECT_NAME":"STARLINK-1633","GP_ID":"207872397","MEAN_ANOMALY":"285.8667","MEAN_ELEMENT_THEORY":"SGP4","RA_OF_ASC_NODE":"183.1372","MEAN_MOTION":"15.06395312","MEAN_MOTION_DOT":"-0.00000028","APOAPSIS":"548.301","PERIAPSIS":"546.154","ECCENTRICITY":"0.00015500","MEAN_MOTION_DDOT":"0.0000000000000","SITE":"AFETR","DECAY_DATE":null,"TLE_LINE1":"1 46171U 20057BG  22191.68781440 -.00000028  00000-0  17032-4 0  9994","NORAD_CAT_ID":"46171","EPOCH":"2022-07-10T16:30:27.164160","CLASSIFICATION_TYPE":"U","BSTAR":"0.00001703200000","EPHEMERIS_TYPE":"0","ARG_OF_PERICENTER":"74.2492"},{"TLE_LINE2":"2 46172  53.0525 183.0714 0001630  64.1206 295.9951 15.06390913105930","FILE":"3511318","REV_AT_EPOCH":"10593","COUNTRY_CODE":"US","INCLINATION":"53.0525","TIME_SYSTEM":"UTC","PERIOD":"95.593","SEMIMAJOR_AXIS":"6925.376","CENTER_NAME":"EARTH","ELEMENT_SET_NO":"999","REF_FRAME":"TEME","LAUNCH_DATE":"2020-08-18","RCS_SIZE":"LARGE","OBJECT_ID":"2020-057BH","OBJECT_TYPE":"PAYLOAD","RA_OF_ASC_NODE":"183.0714","MEAN_MOTION":"15.06390913","MEAN_ELEMENT_THEORY":"SGP4","MEAN_ANOMALY":"295.9951","GP_ID":"207873141","OBJECT_NAME":"STARLINK-1635","ECCENTRICITY":"0.00016300","PERIAPSIS":"546.113","APOAPSIS":"548.370","MEAN_MOTION_DOT":"-0.00001077","ARG_OF_PERICENTER":"64.1206","EPHEMERIS_TYPE":"0","BSTAR":"-0.00005345300000","CLASSIFICATION_TYPE":"U","EPOCH":"2022-07-10T16:51:39.576960","TLE_LINE1":"1 46172U 20057BH  22191.70254140 -.00001077  00000-0 -53453-4 0  9993","NORAD_CAT_ID":"46172","DECAY_DATE":null,"MEAN_MOTION_DDOT":"0.0000000000000","SITE":"AFETR"},{"OBJECT_NAME":"STARLINK-1640","GP_ID":"207871896","MEAN_ANOMALY":"308.0398","MEAN_ELEMENT_THEORY":"SGP4","RA_OF_ASC_NODE":"202.8778","MEAN_MOTION":"15.06390323","OBJECT_ID":"2020-057BJ","OBJECT_TYPE":"PAYLOAD","RCS_SIZE":"LARGE","LAUNCH_DATE":"2020-08-18","REF_FRAME":"TEME","SEMIMAJOR_AXIS":"6925.378","PERIOD":"95.593","CENTER_NAME":"EARTH","ELEMENT_SET_NO":"999","COUNTRY_CODE":"US","INCLINATION":"53.0525","TIME_SYSTEM":"UTC","FILE":"3511318","REV_AT_EPOCH":"10440","TLE_LINE2":"2 46173  53.0525 202.8778 0001981  52.0770 308.0398 15.06390323104409","SITE":"AFETR","MEAN_MOTION_DDOT":"0.0000000000000","DECAY_DATE":null,"TLE_LINE1":"1 46173U 20057BJ  22191.74861519 -.00000670  00000-0 -26101-4 0  9990","NORAD_CAT_ID":"46173","EPOCH":"2022-07-10T17:58:00.352416","CLASSIFICATION_TYPE":"U","BSTAR":"-0.00002610100000","EPHEMERIS_TYPE":"0","ARG_OF_PERICENTER":"52.0770","MEAN_MOTION_DOT":"-0.00000670","APOAPSIS":"548.615","PERIAPSIS":"545.871","ECCENTRICITY":"0.00019810"},{"NORAD_CAT_ID":"46174","TLE_LINE1":"1 46174U 20057BK  22191.75600071 -.00000607  00000-0 -21836-4 0  9996","DECAY_DATE":null,"MEAN_MOTION_DDOT":"0.0000000000000","SITE":"AFETR","EPHEMERIS_TYPE":"0","ARG_OF_PERICENTER":"52.5135","BSTAR":"-0.00002183600000","CLASSIFICATION_TYPE":"U","EPOCH":"2022-07-10T18:08:38.461344","APOAPSIS":"548.539","MEAN_MOTION_DOT":"-0.00000607","ECCENTRICITY":"0.00018510","PERIAPSIS":"545.975","MEAN_ELEMENT_THEORY":"SGP4","MEAN_ANOMALY":"307.6022","GP_ID":"207872146","OBJECT_NAME":"STARLINK-1641","MEAN_MOTION":"15.06385913","RA_OF_ASC_NODE":"202.8430","ELEMENT_SET_NO":"999","CENTER_NAME":"EARTH","PERIOD":"95.593","SEMIMAJOR_AXIS":"6925.392","REF_FRAME":"TEME","RCS_SIZE":"LARGE","LAUNCH_DATE":"2020-08-18","OBJECT_TYPE":"PAYLOAD","OBJECT_ID":"2020-057BK","TLE_LINE2":"2 46174  53.0529 202.8430 0001851  52.5135 307.6022 15.06385913104403","REV_AT_EPOCH":"10440","FILE":"3511318","TIME_SYSTEM":"UTC","COUNTRY_CODE":"US","INCLINATION":"53.0529"},{"MEAN_MOTION_DOT":"-0.00002132","APOAPSIS":"548.441","ECCENTRICITY":"0.00016700","PERIAPSIS":"546.127","SITE":"AFETR","MEAN_MOTION_DDOT":"0.0000000000000","TLE_LINE1":"1 46325U 20062A   22191.76751735 -.00002132  00000-0 -12435-3 0  9994","NORAD_CAT_ID":"46325","DECAY_DATE":null,"EPOCH":"2022-07-10T18:25:13.499040","EPHEMERIS_TYPE":"0","ARG_OF_PERICENTER":"50.6272","BSTAR":"-0.00012435000000","CLASSIFICATION_TYPE":"U","LAUNCH_DATE":"2020-09-03","RCS_SIZE":"LARGE","OBJECT_ID":"2020-062A","OBJECT_TYPE":"PAYLOAD","CENTER_NAME":"EARTH","PERIOD":"95.594","SEMIMAJOR_AXIS":"6925.419","ELEMENT_SET_NO":"999","REF_FRAME":"TEME","INCLINATION":"53.0543","COUNTRY_CODE":"US","TIME_SYSTEM":"UTC","TLE_LINE2":"2 46325  53.0543 217.7979 0001670  50.6272 309.4865 15.06377005103890","FILE":"3511318","REV_AT_EPOCH":"10389","GP_ID":"207872652","OBJECT_NAME":"STARLINK-1734","MEAN_ELEMENT_THEORY":"SGP4","MEAN_ANOMALY":"309.4865","RA_OF_ASC_NODE":"217.7979","MEAN_MOTION":"15.06377005"},{"TIME_SYSTEM":"UTC","COUNTRY_CODE":"US","INCLINATION":"53.0560","REV_AT_EPOCH":"10263","FILE":"3511318","TLE_LINE2":"2 46326  53.0560 263.6414 0001522  59.7420 300.3720 15.06395509102635","OBJECT_TYPE":"PAYLOAD","OBJECT_ID":"2020-062B","LAUNCH_DATE":"2020-09-03","RCS_SIZE":"LARGE","REF_FRAME":"TEME","ELEMENT_SET_NO":"999","SEMIMAJOR_AXIS":"6925.362","PERIOD":"95.592","CENTER_NAME":"EARTH","MEAN_MOTION":"15.06395509","RA_OF_ASC_NODE":"263.6414","OBJECT_NAME":"STARLINK-1654","GP_ID":"207871407","MEAN_ELEMENT_THEORY":"SGP4","MEAN_ANOMALY":"300.3720","PERIAPSIS":"546.173","ECCENTRICITY":"0.00015220","MEAN_MOTION_DOT":"-0.00001703","APOAPSIS":"548.281","EPOCH":"2022-07-10T15:10:50.796768","CLASSIFICATION_TYPE":"U","BSTAR":"-0.00009546000000","EPHEMERIS_TYPE":"0","ARG_OF_PERICENTER":"59.7420","SITE":"AFETR","MEAN_MOTION_DDOT":"0.0000000000000","DECAY_DATE":null,"NORAD_CAT_ID":"46326","TLE_LINE1":"1 46326U 20062B   22191.63253237 -.00001703  00000-0 -95460-4 0  9998"},{"REV_AT_EPOCH":"10262","FILE":"3511318","TLE_LINE2":"2 46327  53.0530 263.5913 0001419  98.4585 261.6565 15.06381474102624","TIME_SYSTEM":"UTC","INCLINATION":"53.0530","COUNTRY_CODE":"US","REF_FRAME":"TEME","ELEMENT_SET_NO":"999","CENTER_NAME":"EARTH","PERIOD":"95.593","SEMIMAJOR_AXIS":"6925.405","OBJECT_TYPE":"PAYLOAD","OBJECT_ID":"2020-062C","RCS_SIZE":"LARGE","LAUNCH_DATE":"2020-09-03","MEAN_MOTION":"15.06381474","RA_OF_ASC_NODE":"263.5913","MEAN_ANOMALY":"261.6565","MEAN_ELEMENT_THEORY":"SGP4","OBJECT_NAME":"STARLINK-1673","GP_ID":"207871657","PERIAPSIS":"546.288","ECCENTRICITY":"0.00014190","APOAPSIS":"548.253","MEAN_MOTION_DOT":"-0.00002285","BSTAR":"-0.00013464000000","CLASSIFICATION_TYPE":"U","EPHEMERIS_TYPE":"0","ARG_OF_PERICENTER":"98.4585","EPOCH":"2022-07-10T14:07:07.089600","DECAY_DATE":null,"NORAD_CAT_ID":"46327","TLE_LINE1":"1 46327U 20062C   22191.58827650 -.00002285  00000-0 -13464-3 0  9998","MEAN_MOTION_DDOT":"0.0000000000000","SITE":"AFETR"},{"MEAN_MOTION":"15.06387570","RA_OF_ASC_NODE":"242.5021","MEAN_ELEMENT_THEORY":"SGP4","MEAN_ANOMALY":"314.5213","OBJECT_NAME":"STARLINK-1686","GP_ID":"207872409","REV_AT_EPOCH":"10294","FILE":"3511318","TLE_LINE2":"2 46328  53.0553 242.5021 0001780  45.5922 314.5213 15.06387570102942","TIME_SYSTEM":"UTC","COUNTRY_CODE":"US","INCLINATION":"53.0553","REF_FRAME":"TEME","ELEMENT_SET_NO":"999","PERIOD":"95.593","CENTER_NAME":"EARTH","SEMIMAJOR_AXIS":"6925.387","OBJECT_TYPE":"PAYLOAD","OBJECT_ID":"2020-062D","LAUNCH_DATE":"2020-09-03","RCS_SIZE":"LARGE","BSTAR":"-0.00012091000000","CLASSIFICATION_TYPE":"U","ARG_OF_PERICENTER":"45.5922","EPHEMERIS_TYPE":"0","EPOCH":"2022-07-10T20:00:05.601024","DECAY_DATE":null,"NORAD_CAT_ID":"46328","TLE_LINE1":"1 46328U 20062D   22191.83339816 -.00002081  00000-0 -12091-3 0  9998","MEAN_MOTION_DDOT":"0.0000000000000","SITE":"AFETR","PERIAPSIS":"546.019","ECCENTRICITY":"0.00017800","APOAPSIS":"548.484","MEAN_MOTION_DOT":"-0.00002081"},{"RA_OF_ASC_NODE":"242.3440","MEAN_MOTION":"15.06383692","MEAN_ANOMALY":"296.5235","MEAN_ELEMENT_THEORY":"SGP4","GP_ID":"207873153","OBJECT_NAME":"STARLINK-1695","TLE_LINE2":"2 46329  53.0534 242.3440 0001752  63.5934 296.5235 15.06383692102941","FILE":"3511318","REV_AT_EPOCH":"10294","INCLINATION":"53.0534","COUNTRY_CODE":"US","TIME_SYSTEM":"UTC","SEMIMAJOR_AXIS":"6925.399","PERIOD":"95.593","CENTER_NAME":"EARTH","ELEMENT_SET_NO":"999","REF_FRAME":"TEME","LAUNCH_DATE":"2020-09-03","RCS_SIZE":"LARGE","OBJECT_TYPE":"PAYLOAD","OBJECT_ID":"2020-062E","ARG_OF_PERICENTER":"63.5934","EPHEMERIS_TYPE":"0","BSTAR":"0.00003380500000","CLASSIFICATION_TYPE":"U","EPOCH":"2022-07-10T20:47:51.606528","TLE_LINE1":"1 46329U 20062E   22191.86656952  .00000222  00000-0  33805-4 0  9995","NORAD_CAT_ID":"46329","DECAY_DATE":null,"SITE":"AFETR","MEAN_MOTION_DDOT":"0.0000000000000","ECCENTRICITY":"0.00017520","PERIAPSIS":"546.050","APOAPSIS":"548.477","MEAN_MOTION_DOT":"0.00000222"},{"EPOCH":"2022-07-10T20:31:56.415648","EPHEMERIS_TYPE":"0","ARG_OF_PERICENTER":"63.2474","BSTAR":"-0.00006265700000","CLASSIFICATION_TYPE":"U","SITE":"AFETR","MEAN_MOTION_DDOT":"0.0000000000000","TLE_LINE1":"1 46330U 20062F   22191.85551407 -.00001214  00000-0 -62657-4 0  9996","NORAD_CAT_ID":"46330","DECAY_DATE":null,"ECCENTRICITY":"0.00015010","PERIAPSIS":"546.214","MEAN_MOTION_DOT":"-0.00001214","APOAPSIS":"548.293","RA_OF_ASC_NODE":"242.3819","MEAN_MOTION":"15.06386923","GP_ID":"207871908","OBJECT_NAME":"STARLINK-1710","MEAN_ANOMALY":"296.8668","MEAN_ELEMENT_THEORY":"SGP4","INCLINATION":"53.0533","COUNTRY_CODE":"US","TIME_SYSTEM":"UTC","TLE_LINE2":"2 46330  53.0533 242.3819 0001501  63.2474 296.8668 15.06386923102954","FILE":"3511318","REV_AT_EPOCH":"10295","RCS_SIZE":"LARGE","LAUNCH_DATE":"2020-09-03","OBJECT_TYPE":"PAYLOAD","OBJECT_ID":"2020-062F","PERIOD":"95.593","SEMIMAJOR_AXIS":"6925.389","CENTER_NAME":"EARTH","ELEMENT_SET_NO":"999","REF_FRAME":"TEME"}];
